P/2017 G2 (PANSTARRS),e,47.9529,79.7987,105.6135,8.080915,0.0429055,0.64872046,41.3026,01/31.0/2020,2000,g 13.0,4.0
# From MPC109144
C/2017 G3 (PANSTARRS),e,159.0586,279.4802,73.1499,305.4689,0.0001846,0.99151634,0.0000,04/15.3934/2017,2000,g 14.0,4.0
# From MPC115882
C/2017 K1 (PANSTARRS),h,03/16.8045/2018,154.0086,225.6482,4.3538,1.001202,7.288503,2000,7.0,4.0
# From MPC119995
C/2017 K2 (PANSTARRS),h,12/20.1002/2022,87.5422,88.2681,236.1441,1.000399,1.800659,2000,1.5,4.0
# From MPC106346
P/2017 K3 (Gasparovic),e,4.2753,354.3039,253.4134,5.579440,0.0747856,0.58094502,72.8624,01/31.0/2020,2000,g 14.5,4.0
# From MPC114598
C/2017 K4 (ATLAS),e,16.6796,298.8727,15.1870,28.39490,0.0065139,0.90670095,4.9031,01/31.0/2020,2000,g 10.0,4.0
# From MPC119995
C/2017 K5 (PANSTARRS),h,03/23.8409/2020,82.2642,102.3734,171.8143,1.006088,7.678727,2000,5.0,4.0
# From MPC114599
C/2017 K6 (Jacques),e,57.2550,85.0536,303.7814,1064,0.0000284,0.99811940,0.0000,01/03.1826/2018,2000,g 11.0,4.0
# From MPC110083
C/2017 M3 (PANSTARRS),e,77.5262,7.0034,110.3618,168.1699,0.0004519,0.97229946,0.0000,04/28.2413/2017,2000,g 10.5,4.0
# From MPC118093
C/2017 M4 (ATLAS),h,01/17.8741/2019,105.6440,65.8639,167.5596,1.001197,3.251422,2000,6.0,4.0
# From MPC118841
C/2017 M5 (TOTAS),h,06/03.6707/2018,15.8826,216.2728,92.7143,1.004930,5.991150,2000,6.5,4.0
# From MPC114599
C/2017 O1 (ASASSN),e,39.8699,25.7849,20.8646,361.6874,0.0001433,0.99586150,0.0000,10/14.7184/2017,2000,g 11.0,4.0
# From MPC114599
P/2017 P1 (PANSTARRS),e,7.6995,221.4009,122.1710,7.886131,0.0445049,0.31017364,26.3618,01/31.0/2020,2000,g 10.0,4.0
# From MPC114599
C/2017 P2 (PANSTARRS),e,50.0635,165.5167,132.3011,1832,0.0000126,0.99865552,0.0000,12/06.6724/2017,2000,g 10.0,4.0
# From MPC114599
P/2017 R1 (PANSTARRS),e,2.5734,143.6252,178.5055,4.134937,0.1172197,0.19549483,120.3621,01/31.0/2020,2000,g 13.5,4.0
# From MPC108595
C/2017 S2 (PANSTARRS),e,12.6810,62.4195,305.9360,20.49825,0.0106201,0.82377601,9.3947,01/31.0/2020,2000,g 13.0,4.0
# From MPC114599
C/2017 S3 (PANSTARRS),h,08/15.9599/2018,99.0818,171.0998,255.8386,1.000049,0.208432,2000,11.0,4.0
# From MPC114599
P/2017 S5 (ATLAS),e,11.8503,252.3875,99.8357,3.169335,0.1746835,0.31368973,160.1595,01/31.0/2020,2000,g 14.0,4.0
# From MPC109591
C/2017 S6 (Catalina),h,02/26.7433/2018,152.8680,131.0521,134.7963,1.000781,1.541709,2000,12.5,4.0
# From MPC114599
C/2017 S7 (Lemmon),h,05/26.2301/2017,124.2333,262.7933,187.6439,1.001486,7.610285,2000,7.0,4.0
# From MPC114599
P/2017 S8 (PANSTARRS),e,29.8288,191.7494,254.6919,2.777945,0.2128720,0.39285308,155.9599,01/31.0/2020,2000,g 16.0,4.0
# From MPC107050
P/2017 S9 (PANSTARRS),e,14.1431,146.2160,237.7465,3.154358,0.1759291,0.30483424,162.1623,01/31.0/2020,2000,g 17.0,4.0
# From MPC114600
C/2017 T1 (Heinze),h,02/21.5253/2018,96.8374,102.3183,96.9010,1.000030,0.581012,2000,14.5,4.0
# From MPC119996
C/2017 T2 (PANSTARRS),e,57.2308,64.3784,92.9937,4830,0.0000029,0.99966559,0.0000,05/04.9507/2020,2000,g  5.0,4.0
# From MPC114600
C/2017 T3 (ATLAS),e,88.0298,230.0671,246.8359,1539,0.0000163,0.99946405,0.0000,07/19.1019/2018,2000,g 10.0,4.0
# From MPC115882
P/2017 TW13 (Lemmon),e,44.8455,322.2825,120.0668,7.151462,0.0515361,0.70941237,30.3611,01/31.0/2020,2000,g 15.0,2.0
# From MPC114600
C/2017 U2 (Fuls),e,95.3967,149.7136,147.7594,5221,0.0000026,0.99871620,0.0000,08/28.2936/2017,2000,g  9.0,4.0
# From MPC114600
P/2017 U3 (PANSTARRS),e,15.9113,165.1119,297.2110,4.932832,0.0899621,0.09904578,25.7775,01/31.0/2020,2000,g 11.0,4.0
# From MPC114600
C/2017 U4 (PANSTARRS),h,09/24.4240/2018,158.2233,245.9506,159.0948,1.003604,7.723159,2000,7.0,4.0
# From MPC114600
C/2017 U5 (PANSTARRS),e,18.9650,163.0886,262.0838,16.88365,0.0142071,0.74387861,10.9888,01/31.0/2020,2000,g 12.0,4.0
# From MPC118841
A/2017 U7,h,09/11.8692/2019,142.6349,276.2327,326.0812,1.001855,6.417564,2000,8.3,2.0
# From MPC114600
C/2017 W2 (Leonard),e,98.1981,312.8312,169.1214,13.69010,0.0194578,0.71103786,15.9609,01/31.0/2020,2000,g 11.0,4.0
# From MPC114601
P/2017 W3 (Gibbs),e,18.2024,210.5043,327.3631,7.837996,0.0449155,0.50881895,31.4763,01/31.0/2020,2000,g 10.5,4.0
# From MPC115883
C/2017 X1 (PANSTARRS),e,31.3071,251.1288,283.2540,31.48871,0.0055779,0.85181284,3.3162,01/31.0/2020,2000,g 10.0,4.0
# From MPC117069
C/2017 Y1 (PANSTARRS),e,55.2620,307.5233,134.3802,2091,0.0000103,0.99822262,0.0000,08/31.1942/2017,2000,g 11.5,4.0
# From MPC118841
C/2017 Y2 (PANSTARRS),h,11/04.4587/2020,128.4306,65.9711,147.8311,1.000312,4.632462,2000,15.0,4.0
# From MPC111770
P/2017 Y3 (Leonard),e,27.5730,153.8637,67.5646,9.852520,0.0318701,0.87040646,22.9113,01/31.0/2020,2000,g 16.5,4.0
# From MPC114601
C/2018 A1 (PANSTARRS),e,53.5859,336.6313,96.3332,25.14033,0.0078189,0.90382128,6.5109,01/31.0/2020,2000,g 12.5,4.0
# From MPC119996
C/2018 A3 (ATLAS),e,139.5563,194.2906,86.4186,504.1631,0.0000871,0.99350140,0.0000,01/12.7983/2019,2000,g  8.5,4.0
# From MPC114601
C/2018 A4 (PANSTARRS),e,3.1481,97.6350,356.0977,12.22967,0.0230453,0.80358086,14.3427,01/31.0/2020,2000,g 14.0,4.0
# From MPC109147
P/2018 A5 (PANSTARRS),e,23.5779,87.8307,359.6370,5.639767,0.0735889,0.52230530,63.2567,01/31.0/2020,2000,g 15.0,4.0
# From MPC119996
C/2018 A6 (Gibbs),e,76.9554,340.3855,264.5393,15.35089,0.0163872,0.80340597,3.2888,01/31.0/2020,2000,g  9.0,4.0
# From MPC118841
C/2018 B1 (Lemmon),h,03/29.9880/2018,162.4213,133.1870,68.3216,1.002025,5.115508,2000,9.0,4.0
# From MPC114601
P/2018 C1 (Lemmon-Read),e,5.1400,270.3867,235.2533,5.637814,0.0736271,0.53591087,51.7077,01/31.0/2020,2000,g 13.5,4.0
# From MPC114601
C/2018 C2 (Lemmon),h,06/02.0435/2018,34.4584,91.1393,134.1099,1.001091,1.956597,2000,13.0,4.0
# From MPEC 2020-AA5
C/2018 DO4 (Lemmon),e,160.4742,251.1320,175.9650,25.81471,0.0075146,0.90680063,1.2445,01/31.0/2020,2000,g 11.0,4.0
# From MPC114602
C/2018 E1 (ATLAS),e,72.5002,146.8476,299.4488,54.10824,0.0024763,0.95001318,1.6189,01/31.0/2020,2000,g 10.5,4.0
# From MPC114602
C/2018 E2 (Barros),e,97.7349,67.2010,277.4837,3344,0.0000051,0.99882739,0.0000,12/23.8880/2017,2000,g 10.5,4.0
# From MPC114602
C/2018 EN4 (NEOWISE),e,81.5821,136.1560,35.0120,18.33297,0.0125561,0.92098492,7.5636,01/31.0/2020,2000,g 15.0,4.0
# From MPC114602
C/2018 EF9 (Lemmon),e,84.6698,172.5772,72.6212,604.2938,0.0000663,0.99742352,0.0000,05/23.0673/2018,2000,g 18.0,2.0
# From MPC115883
C/2018 F1 (Grauer),e,46.0744,177.2771,71.6380,304.5701,0.0001854,0.99017183,0.0000,12/14.0386/2018,2000,g 11.5,4.0
# From MPC110084
C/2018 F3 (Johnson),p,08/15.2314/2017,105.5348,293.0113,2.483172,173.0311,2000,13.0,4.0
# From MPC119996
C/2018 F4 (PANSTARRS),h,12/04.1050/2019,78.0984,26.5078,263.2145,1.001472,3.439846,2000,11.9,2.0
# From MPC114602
P/2018 H2 (PANSTARRS),e,7.3883,68.4407,120.0462,4.397672,0.1068735,0.53985210,78.8714,01/31.0/2020,2000,g 16.6,2.0
# From MPC114602
C/2018 K1 (Weiland),e,164.1960,260.0136,324.9935,29.83795,0.0060471,0.93701292,4.0167,01/31.0/2020,2000,g 14.9,4.0
# From MPC118094
C/2018 KJ3 (Lemmon),e,136.7093,91.5945,217.6283,742.8446,0.0000487,0.99511516,0.0000,09/09.5134/2019,2000,g 12.2,2.0
# From MPC114602
P/2018 L1 (PANSTARRS),e,10.5947,268.6269,17.9295,3.648923,0.1414025,0.48304629,62.8411,01/31.0/2020,2000,g 15.0,4.0
# From MPC118841
C/2018 L2 (ATLAS),e,67.4173,243.0214,56.2500,251.2427,0.0002475,0.99318564,0.0000,12/02.6229/2018,2000,g 10.0,4.0
# From MPC114603
P/2018 L4 (PANSTARRS),e,26.6233,145.1760,140.4938,4.937385,0.0898377,0.66032400,49.2403,01/31.0/2020,2000,g 17.5,4.0
# From MPC119996
P/2018 L5 (Leonard),e,2.2088,219.1526,93.7228,3.626800,0.1426983,0.36475655,90.7872,01/31.0/2020,2000,g 14.5,4.0
# From MPC117070
C/2018 M1 (Catalina),e,37.2695,339.4381,14.1431,21.29863,0.0100271,0.93882450,5.7146,01/31.0/2020,2000,g 15.5,4.0
# From MPC112393
C/2018 N1 (NEOWISE),e,159.4448,292.4446,354.5726,332.2390,0.0001628,0.99606330,0.0000,08/01.9281/2018,2000,g 15.5,4.0
# From MPC119996
C/2018 N2 (ASASSN),h,11/10.9649/2019,77.5304,25.2582,24.3971,1.000167,3.124645,2000,6.0,4.0
# From MPC114603
C/2018 O1 (ATLAS),e,154.0426,87.6247,162.5152,27.78031,0.0067313,0.94389151,3.4832,01/31.0/2020,2000,g 17.0,4.0
# From MPC114603
P/2018 P3 (PANSTARRS),e,8.9084,59.2037,305.8710,3.007021,0.1890163,0.41608818,90.4456,01/31.0/2020,2000,g 14.5,4.0
# From MPC114603
P/2018 P4 (PANSTARRS),e,23.1069,353.0964,8.1484,6.665676,0.0572714,0.44998532,25.7425,01/31.0/2020,2000,g 12.0,4.0
# From MPC118094
C/2018 P5 (PANSTARRS),e,7.2556,216.2455,131.6619,12.76895,0.0216009,0.64161901,7.3119,01/31.0/2020,2000,g 11.0,4.0
# From MPC118841
C/2018 R3 (Lemmon),e,69.7188,324.6261,112.8715,1921,0.0000117,0.99932807,0.0000,06/07.1956/2019,2000,g  9.5,4.0
# From MPC112393
C/2018 R4 (Fuls),e,11.6833,298.4409,345.2135,315.5106,0.0001759,0.99457737,0.0000,03/03.6787/2018,2000,g 14.0,4.0
# From MPC114603
C/2018 R5 (Lemmon),e,103.7501,171.1393,178.0281,22.81709,0.0090430,0.84127509,3.4903,01/31.0/2020,2000,g 11.5,4.0
# From MPC119996
C/2018 U1 (Lemmon),h,11/02.7628/2021,108.3020,75.4763,180.4023,1.000397,4.994894,2000,5.0,4.0
# From MPC114604
C/2018 V1 (Machholz-Fujikawa-Iwamoto),h,12/03.5226/2018,144.0507,128.8700,88.8442,1.000469,0.385998,2000,12.0,4.0
# From MPC115884
C/2018 V2 (ATLAS),e,159.1146,356.8053,318.7054,25.46015,0.0076721,0.90275315,3.2990,01/31.0/2020,2000,g 15.0,4.0
# From MPC114604
P/2018 VN2 (Leonard),e,18.2470,226.5430,138.7291,4.065298,0.1202446,0.47810186,72.7068,01/31.0/2020,2000,g 15.0,4.0
# From MPC117070
A/2018 V3,e,164.9777,308.6589,3.4962,121.4720,0.0007362,0.98897342,0.0000,09/08.6920/2019,2000,g 15.7,2.0
# From MPC114604
C/2018 V4 (Africano),e,69.0043,78.3800,359.9799,211.7581,0.0003198,0.98489448,0.0000,03/01.5727/2019,2000,g 12.5,4.0
# From MPC114604
P/2018 V5 (Trujillo-Sheppard),e,10.5816,171.3021,260.7529,8.956539,0.0367700,0.47449569,17.8254,01/31.0/2020,2000,g 12.5,4.0
# From MPC115884
C/2018 W1 (Catalina),e,83.2689,233.5917,251.2589,21.81361,0.0096742,0.93763560,2.5553,01/31.0/2020,2000,g 15.7,2.0
# From MPC119996
